OBJECT_NAME,OBJECT_ID,EPOCH,MEAN_MOTION,ECCENTRICITY,INCLINATION,RA_OF_ASC_NODE,ARG_OF_PERICENTER,MEAN_ANOMALY,EPHEMERIS_TYPE,CLASSIFICATION_TYPE,NORAD_CAT_ID,ELEMENT_SET_NO,REV_AT_EPOCH,BSTAR,MEAN_MOTION_DOT,MEAN_MOTION_DDOT
LIGHTSAIL 2,2019-036AC,2020-06-26T18:45:25.193376,14.55765548,.0023792,24.0065,48.8689,236.9601,122.8604,0,U,44420,999,5167,.79701E-3,3.787E-5,0
